[{"OBJECT_NAME":"STARLINK-1707","OBJECT_ID":"2020-062AL","EPOCH":"2026-03-10T00:00:02.999808","MEAN_MOTION":15.64738018,"ECCENTRICITY":0.00048268,"INCLINATION":53.0247,"RA_OF_ASC_NODE":272.9503,"ARG_OF_PERICENTER":149.3622,"MEAN_ANOMALY":71.1138,"EPHEMERIS_TYPE":0,"CLASSIFICATION_TYPE":"U","NORAD_CAT_ID":46359,"ELEMENT_SET_NO":999,"REV_AT_EPOCH":594,"BSTAR":0.0008682066,"MEAN_MOTION_DOT":0.00086366,"MEAN_MOTION_DDOT":0},{"OBJECT_NAME":"STARLINK-1655","OBJECT_ID":"2021-012D","EPOCH":"2026-03-09T22:00:01.999584","MEAN_MOTION":15.647461,"ECCENTRICITY":0.00039209,"INCLINATION":53.0429,"RA_OF_ASC_NODE":324.9563,"ARG_OF_PERICENTER":287.628,"MEAN_ANOMALY":165.2974,"EPHEMERIS_TYPE":0,"CLASSIFICATION_TYPE":"U","NORAD_CAT_ID":47623,"ELEMENT_SET_NO":999,"REV_AT_EPOCH":588,"BSTAR":-5.448924e-5,"MEAN_MOTION_DOT":-5.948e-5,"MEAN_MOTION_DDOT":0}]
